NORAD_CAT_ID,OBJECT_NAME,OBJECT_TYPE,EPOCH,MEAN_MOTION,ECCENTRICITY,INCLINATION,RA_OF_ASC_NODE,ARG_OF_PERICENTER,MEAN_ANOMALY,BSTAR,MEAN_MOTION_DOT,MEAN_MOTION_DDOT,TLE_LINE0,TLE_LINE1,TLE_LINE2,SEMIMAJOR_AXIS,PERIOD,APOGEE,PERIGEE,DECAYED
51769.0,STARLINK-3621,PAYLOAD,2024-02-01 10:06:12,15.08841597,0.0001658,53.2162,183.5255,70.0912,290.0259,4.4891e-05,4.26e-06,0.0,0 STARLINK-3621,1 51769U 22017B   24032.42097730  .00000426  00000-0  44891-4 0  9995,2 51769  53.2162 183.5255 0001658  70.0912 290.0259 15.08841597108225,6917.876,95.437,540.887,538.594,0.0
51769.0,STARLINK-3621,PAYLOAD,2024-02-01 19:38:30,15.08845956,0.000142,53.2159,181.7393,85.8681,274.2473,6.0694e-05,6.78e-06,0.0,0 STARLINK-3621,1 51769U 22017B   24032.81841213  .00000678  00000-0  60694-4 0  9999,2 51769  53.2159 181.7393 0001420  85.8681 274.2473 15.08845956106838,6917.862,95.437,540.71,538.745,0.0
51769.0,STARLINK-3621,PAYLOAD,2024-02-02 14:43:08,15.08838501,0.0001471,53.2161,178.1705,92.5922,267.5239,5.8112e-05,6.37e-06,0.0,0 STARLINK-3621,1 51769U 22017B   24033.61329688  .00000637  00000-0  58112-4 0  9992,2 51769  53.2161 178.1705 0001471  92.5922 267.5239 15.08838501106953,6917.885,95.438,540.768,538.732,0.0
51769.0,STARLINK-3621,PAYLOAD,2024-02-02 19:29:18,15.08840454,0.0001467,53.2163,177.278,94.0358,266.0801,6.9546e-05,8.19e-06,0.0,0 STARLINK-3621,1 51769U 22017B   24033.81201530  .00000819  00000-0  69546-4 0  9994,2 51769  53.2163 177.2780 0001467  94.0358 266.0801 15.08840454108437,6917.879,95.438,540.759,538.729,0.0
51769.0,STARLINK-3621,PAYLOAD,2024-02-03 12:58:32,15.08851809,0.0001879,53.2166,174.0056,110.6475,249.4719,-0.00019321,-3.363e-05,0.0,0 STARLINK-3621,1 51769U 22017B   24034.54065699 -.00003363  00000-0 -19321-3 0  9993,2 51769  53.2166 174.0056 0001879 110.6475 249.4719 15.08851809107093,6917.844,95.437,541.009,538.409,0.0
51769.0,STARLINK-3621,PAYLOAD,2024-02-03 16:09:19,15.08840685,0.0001422,53.2167,173.4112,98.0078,262.1075,2.7776e-05,1.54e-06,0.0,0 STARLINK-3621,1 51769U 22017B   24034.67313779  .00000154  00000-0  27776-4 0  9999,2 51769  53.2167 173.4112 0001422  98.0078 262.1075 15.08840685107112,6917.878,95.438,540.727,538.76,0.0
51769.0,STARLINK-3621,PAYLOAD,2024-02-04 01:41:37,15.08842752,0.0001518,53.2169,171.6282,87.4397,272.6768,1.4425e-05,-5.8e-07,0.0,0 STARLINK-3621,1 51769U 22017B   24035.07057715 -.00000058  00000-0  14425-4 0  9990,2 51769  53.2169 171.6282 0001518  87.4397 272.6768 15.08842752108623,6917.872,95.437,540.787,538.687,0.0
51769.0,STARLINK-3621,PAYLOAD,2024-02-04 14:24:43,15.08838469,0.0001527,53.2178,169.2517,100.6639,259.4525,5.7515e-05,6.27e-06,0.0,0 STARLINK-3621,1 51769U 22017B   24035.60050058  .00000627  00000-0  57515-4 0  9990,2 51769  53.2178 169.2517 0001527 100.6639 259.4525 15.08838469107256,6917.885,95.438,540.806,538.694,0.0
51769.0,STARLINK-3621,PAYLOAD,2024-02-04 16:00:06,15.08839136,0.0001518,53.2179,168.9544,100.3147,259.8017,6.3437e-05,7.22e-06,0.0,0 STARLINK-3621,1 51769U 22017B   24035.66674016  .00000722  00000-0  63437-4 0  9998,2 51769  53.2179 168.9544 0001518 100.3147 259.8017 15.08839136107267,6917.883,95.438,540.798,538.698,0.0
51769.0,STARLINK-3621,PAYLOAD,2024-02-05 14:15:30,15.08844029,0.0001436,53.2179,164.7934,102.8627,257.2525,9.9299e-07,-2.72e-06,0.0,0 STARLINK-3621,1 51769U 22017B   24036.59410104 -.00000272  00000-0  99299-6 0  9995,2 51769  53.2179 164.7934 0001436 102.8627 257.2525 15.08844029107402,6917.868,95.437,540.726,538.74,0.0
51769.0,STARLINK-3621,PAYLOAD,2024-02-05 15:50:53,15.08848582,0.000149,53.2176,164.4916,105.7308,254.3849,-1.3355e-05,-5.01e-06,0.0,0 STARLINK-3621,1 51769U 22017B   24036.66033828 -.00000501  00000-0 -13355-4 0  9990,2 51769  53.2176 164.4916 0001490 105.7308 254.3849 15.08848582108860,6917.854,95.437,540.75,538.688,0.0
51769.0,STARLINK-3621,PAYLOAD,2024-02-06 07:44:44,15.08839904,0.0001395,53.2167,161.5206,67.7243,292.3897,0.00010597,1.399e-05,0.0,0 STARLINK-3621,1 51769U 22017B   24037.32274186  .00001399  00000-0  10597-3 0  9996,2 51769  53.2167 161.5206 0001395  67.7243 292.3897 15.08839904108963,6917.881,95.438,540.711,538.781,0.0
51769.0,STARLINK-3621,PAYLOAD,2024-02-06 14:06:17,15.08843012,0.0001408,53.2171,160.3306,65.2327,294.8812,6.6481e-05,7.7e-06,0.0,0 STARLINK-3621,1 51769U 22017B   24037.58770135  .00000770  00000-0  66481-4 0  9995,2 51769  53.2171 160.3306 0001408  65.2327 294.8812 15.08843012107550,6917.871,95.437,540.71,538.762,0.0
51769.0,STARLINK-3621,PAYLOAD,2024-02-06 15:41:40,15.08844456,0.0001468,53.2169,160.0327,64.3927,295.7217,9.0672e-05,1.156e-05,0.0,0 STARLINK-3621,1 51769U 22017B   24037.65393969  .00001156  00000-0  90672-4 0  9997,2 51769  53.2169 160.0327 0001468  64.3927 295.7217 15.08844456107562,6917.867,95.437,540.747,538.716,0.0
51769.0,STARLINK-3621,PAYLOAD,2024-02-07 12:21:41,15.08840071,0.0001633,53.2172,156.1681,56.4587,303.6561,3.039e-05,1.96e-06,0.0,0 STARLINK-3621,1 51769U 22017B   24038.51506605  .00000196  00000-0  30390-4 0  9990,2 51769  53.2172 156.1681 0001633  56.4587 303.6561 15.08840071109149,6917.88,95.438,540.875,538.615,0.0
51769.0,STARLINK-3621,PAYLOAD,2024-02-07 13:57:04,15.08840713,0.0001319,53.217,155.8701,69.885,290.2284,3.1851e-05,2.19e-06,0.0,0 STARLINK-3621,1 51769U 22017B   24038.58130452  .00000219  00000-0  31851-4 0  9999,2 51769  53.2170 155.8701 0001319  69.8850 290.2284 15.08840713107704,6917.878,95.438,540.656,538.831,0.0
51769.0,STARLINK-3621,PAYLOAD,2024-02-07 17:07:50,15.08851276,0.0001193,53.2163,155.2697,85.8853,274.2276,7.7043e-05,9.39e-06,0.0,0 STARLINK-3621,1 51769U 22017B   24038.71377481  .00000939  00000-0  77043-4 0  9991,2 51769  53.2163 155.2697 0001193  85.8853 274.2276 15.08851276109177,6917.846,95.437,540.536,538.886,0.0
51769.0,STARLINK-3621,PAYLOAD,2024-02-08 13:47:51,15.08849281,0.0001644,53.2183,151.402,120.9654,239.15,1.2058e-05,-9.6e-07,0.0,0 STARLINK-3621,1 51769U 22017B   24039.57489711 -.00000096  00000-0  12058-4 0  9996,2 51769  53.2183 151.4020 0001644 120.9654 239.1500 15.08849281107854,6917.852,95.437,540.854,538.58,0.0
51769.0,STARLINK-3621,PAYLOAD,2024-02-09 12:03:15,15.08844986,0.0001439,53.2161,147.2454,93.3678,266.7479,4.6496e-05,4.52e-06,0.0,0 STARLINK-3621,1 51769U 22017B   24040.50226030  .00000452  00000-0  46496-4 0  9992,2 51769  53.2161 147.2454 0001439  93.3678 266.7479 15.08844986109440,6917.865,95.437,540.726,538.735,0.0
51769.0,STARLINK-3621,PAYLOAD,2024-02-09 13:38:38,15.08845642,0.0001436,53.2161,146.948,92.7418,267.3739,5.1868e-05,5.38e-06,0.0,0 STARLINK-3621,1 51769U 22017B   24040.56849973  .00000538  00000-0  51868-4 0  9999,2 51769  53.2161 146.9480 0001436  92.7418 267.3739 15.08845642108004,6917.863,95.437,540.722,538.735,0.0
51769.0,STARLINK-3621,PAYLOAD,2024-02-10 11:54:02,15.0884582,0.00014,53.2161,142.7814,93.7296,266.3856,-3.5965e-05,-8.6e-06,0.0,0 STARLINK-3621,1 51769U 22017B   24041.49586231 -.00000860  00000-0 -35965-4 0  9997,2 51769  53.2161 142.7814 0001400  93.7296 266.3856 15.08845820109597,6917.863,95.437,540.696,538.759,0.0
51769.0,STARLINK-3621,PAYLOAD,2024-02-10 13:29:25,15.08847398,0.0001456,53.2174,142.4814,79.4599,280.6557,-2.0189e-06,-3.2e-06,0.0,0 STARLINK-3621,1 51769U 22017B   24041.56210046 -.00000320  00000-0 -20189-5 0  9997,2 51769  53.2174 142.4814 0001456  79.4599 280.6557 15.08847398108156,6917.858,95.437,540.73,538.716,0.0
51769.0,STARLINK-3621,PAYLOAD,2024-02-10 16:40:11,15.08847824,0.0001418,53.2175,141.8869,89.2105,270.905,-1.1132e-05,-4.65e-06,0.0,0 STARLINK-3621,1 51769U 22017B   24041.69457946 -.00000465  00000-0 -11132-4 0  9990,2 51769  53.2175 141.8869 0001418  89.2105 270.9050 15.08847824108176,6917.856,95.437,540.702,538.741,0.0
51769.0,STARLINK-3621,PAYLOAD,2024-02-11 13:20:12,15.0884787,0.000162,53.2176,138.0222,113.3653,246.751,6.9888e-05,8.25e-06,0.0,0 STARLINK-3621,1 51769U 22017B   24042.55569856  .00000825  00000-0  69888-4 0  9999,2 51769  53.2176 138.0222 0001620 113.3653 246.7510 15.08847870108308,6917.856,95.437,540.842,538.601,0.0
51769.0,STARLINK-3621,PAYLOAD,2024-02-11 16:30:58,15.0884979,0.0001503,53.2167,137.4281,107.983,252.1326,0.00011168,1.49e-05,0.0,0 STARLINK-3621,1 51769U 22017B   24042.68817558  .00001490  00000-0  11168-3 0  9994,2 51769  53.2167 137.4281 0001503 107.9830 252.1326 15.08849790109773,6917.85,95.437,540.755,538.676,0.0
51769.0,STARLINK-3621,PAYLOAD,2024-02-12 11:35:36,15.0884865,0.0001341,53.2169,133.8573,90.5444,269.5702,7.222e-05,8.62e-06,0.0,0 STARLINK-3621,1 51769U 22017B   24043.48305691  .00000862  00000-0  72220-4 0  9992,2 51769  53.2169 133.8573 0001341  90.5444 269.5702 15.08848650109894,6917.854,95.437,540.647,538.791,0.0
51769.0,STARLINK-3621,PAYLOAD,2024-02-12 13:10:59,15.08853588,0.0001496,53.2174,133.5628,107.0967,253.0189,4.211e-05,3.82e-06,0.0,0 STARLINK-3621,1 51769U 22017B   24043.54929445  .00000382  00000-0  42110-4 0  9990,2 51769  53.2174 133.5628 0001496 107.0967 253.0189 15.08853588108457,6917.839,95.437,540.739,538.669,0.0
51769.0,STARLINK-3621,PAYLOAD,2024-02-12 14:46:21,15.08861423,0.0001193,53.217,133.268,93.264,266.8488,0.00016234,2.298e-05,0.0,0 STARLINK-3621,1 51769U 22017B   24043.61552640  .00002298  00000-0  16234-3 0  9992,2 51769  53.2170 133.2680 0001193  93.2640 266.8488 15.08861423109919,6917.815,95.436,540.505,538.855,0.0
51769.0,STARLINK-3621,PAYLOAD,2024-02-13 11:26:24,15.08835606,0.0001566,53.2174,129.4003,101.0267,259.0901,-4.2945e-05,-9.71e-06,0.0,0 STARLINK-3621,1 51769U 22017B   24044.47667155 -.00000971  00000-0 -42945-4 0  9992,2 51769  53.2174 129.4003 0001566 101.0267 259.0901 15.08835606110040,6917.894,95.438,540.842,538.675,0.0
51769.0,STARLINK-3621,PAYLOAD,2024-02-13 13:01:47,15.08836464,0.0001512,53.2172,129.1025,90.6323,269.4843,-2.5766e-05,-6.98e-06,0.0,0 STARLINK-3621,1 51769U 22017B   24044.54291186 -.00000698  00000-0 -25766-4 0  9995,2 51769  53.2172 129.1025 0001512  90.6323 269.4843 15.08836464108608,6917.891,95.438,540.802,538.71,0.0
